STARLINK-36673          
1 67660U 26022N   26062.04169635  .00271167  00000+0  17533-2 0  9991
2 67660  97.2831  95.7091 0001840 134.6677 225.4739 15.75301478  4507
STARLINK-36674          
1 67661U 26022P   26062.04028564  .00337559  00000+0  21645-2 0  9994
2 67661  97.2835  95.7113 0001593 136.3093 223.8298 15.75310327  4508
STARLINK-36700          
1 67662U 26022Q   26062.03816615  .00370949  00000+0  23664-2 0  9999
2 67662  97.2826  95.7137 0001249 133.2144 226.9226 15.75335830  4507
STARLINK-36675          
1 67663U 26022R   26062.03957737  .00381975  00000+0  24331-2 0  9994
2 67663  97.2825  95.7116 0001869 132.4232 227.7192 15.75341047  4509
STARLINK-36404          
1 67664U 26022S   26062.03639923  .00400811  00000+0  25534-2 0  9996
2 67664  97.2830  95.7151 0001151 100.1781 259.9614 15.75284603  4500
STARLINK-36399          
1 67665U 26022T   26062.03569614  .00397221  00000+0  25254-2 0  9995
2 67665  97.2832  95.7162 0001347 132.0460 228.0920 15.75342132  4509
STARLINK-36365          
1 67666U 26022U   26062.03428515  .00403148  00000+0  25609-2 0  9990
2 67666  97.2835  95.7185 0001596 126.6069 233.5343 15.75345768  4506
STARLINK-36622          
1 67667U 26022V   26062.09604681  .00146472  00000+0  96542-3 0  9996
2 67667  97.2822  95.7874 0001089  10.9453 349.1836 15.75207219  4517
STARLINK-36625          
1 67668U 26022W   26062.03111005  .00251647  00000+0  16323-2 0  9993
2 67668  97.2830  95.7225 0001065 125.3004 234.8361 15.75281677  4506
STARLINK-36639          
1 67669U 26022X   26062.09286772  .00096693  00000+0  64178-3 0  9994
2 67669  97.2830  95.7909 0001073  69.2069 290.9311 15.75192121  4516
STARLINK-36596          
1 67670U 26022Y   26062.09110689  .00172706  00000+0  11361-2 0  9994
2 67670  97.2833  95.7935 0001627  33.9152 326.2217 15.75177264  4515
STARLINK-36297          
1 67671U 26022Z   26062.08898669  .00120062  00000+0  79398-3 0  9998
2 67671  97.2832  95.7965 0001314  80.1852 279.9561 15.75206441  4518
