CCSDS_OMM_VERS = 2.0
CREATION_DATE  = 
ORIGINATOR     = 

OBJECT_NAME    = STARLINK-36673
OBJECT_ID      = 2026-022N
CENTER_NAME    = EARTH
REF_FRAME      = TEME
TIME_SYSTEM    = UTC
MEAN_ELEMENT_THEORY = SGP/SGP4

EPOCH          = 2026-03-03T01:00:02.564640
MEAN_MOTION    = 15.75301478
ECCENTRICITY   = .000184
INCLINATION    = 97.2831
RA_OF_ASC_NODE = 95.7091
ARG_OF_PERICENTER = 134.6677
MEAN_ANOMALY   = 225.4739

EPHEMERIS_TYPE = 0
CLASSIFICATION_TYPE = U
NORAD_CAT_ID   = 67660
ELEMENT_SET_NO = 999
REV_AT_EPOCH   = 450
BSTAR          = .17533E-2
MEAN_MOTION_DOT = .271167E-2
MEAN_MOTION_DDOT = 0

CCSDS_OMM_VERS = 2.0
CREATION_DATE  = 
ORIGINATOR     = 

OBJECT_NAME    = STARLINK-36674
OBJECT_ID      = 2026-022P
CENTER_NAME    = EARTH
REF_FRAME      = TEME
TIME_SYSTEM    = UTC
MEAN_ELEMENT_THEORY = SGP/SGP4

EPOCH          = 2026-03-03T00:58:00.679296
MEAN_MOTION    = 15.75310327
ECCENTRICITY   = .0001593
INCLINATION    = 97.2835
RA_OF_ASC_NODE = 95.7113
ARG_OF_PERICENTER = 136.3093
MEAN_ANOMALY   = 223.8298

EPHEMERIS_TYPE = 0
CLASSIFICATION_TYPE = U
NORAD_CAT_ID   = 67661
ELEMENT_SET_NO = 999
REV_AT_EPOCH   = 450
BSTAR          = .21645E-2
MEAN_MOTION_DOT = .337559E-2
MEAN_MOTION_DDOT = 0

CCSDS_OMM_VERS = 2.0
CREATION_DATE  = 
ORIGINATOR     = 

OBJECT_NAME    = STARLINK-36700
OBJECT_ID      = 2026-022Q
CENTER_NAME    = EARTH
REF_FRAME      = TEME
TIME_SYSTEM    = UTC
MEAN_ELEMENT_THEORY = SGP/SGP4

EPOCH          = 2026-03-03T00:54:57.555360
MEAN_MOTION    = 15.75335830
ECCENTRICITY   = .0001249
INCLINATION    = 97.2826
RA_OF_ASC_NODE = 95.7137
ARG_OF_PERICENTER = 133.2144
MEAN_ANOMALY   = 226.9226

EPHEMERIS_TYPE = 0
CLASSIFICATION_TYPE = U
NORAD_CAT_ID   = 67662
ELEMENT_SET_NO = 999
REV_AT_EPOCH   = 450
BSTAR          = .23664E-2
MEAN_MOTION_DOT = .370949E-2
MEAN_MOTION_DDOT = 0

CCSDS_OMM_VERS = 2.0
CREATION_DATE  = 
ORIGINATOR     = 

OBJECT_NAME    = STARLINK-36675
OBJECT_ID      = 2026-022R
CENTER_NAME    = EARTH
REF_FRAME      = TEME
TIME_SYSTEM    = UTC
MEAN_ELEMENT_THEORY = SGP/SGP4

EPOCH          = 2026-03-03T00:56:59.484768
MEAN_MOTION    = 15.75341047
ECCENTRICITY   = .0001869
INCLINATION    = 97.2825
RA_OF_ASC_NODE = 95.7116
ARG_OF_PERICENTER = 132.4232
MEAN_ANOMALY   = 227.7192

EPHEMERIS_TYPE = 0
CLASSIFICATION_TYPE = U
NORAD_CAT_ID   = 67663
ELEMENT_SET_NO = 999
REV_AT_EPOCH   = 450
BSTAR          = .24331E-2
MEAN_MOTION_DOT = .381975E-2
MEAN_MOTION_DDOT = 0

CCSDS_OMM_VERS = 2.0
CREATION_DATE  = 
ORIGINATOR     = 

OBJECT_NAME    = STARLINK-36404
OBJECT_ID      = 2026-022S
CENTER_NAME    = EARTH
REF_FRAME      = TEME
TIME_SYSTEM    = UTC
MEAN_ELEMENT_THEORY = SGP/SGP4

EPOCH          = 2026-03-03T00:52:24.893472
MEAN_MOTION    = 15.75284603
ECCENTRICITY   = .0001151
INCLINATION    = 97.2830
RA_OF_ASC_NODE = 95.7151
ARG_OF_PERICENTER = 100.1781
MEAN_ANOMALY   = 259.9614

EPHEMERIS_TYPE = 0
CLASSIFICATION_TYPE = U
NORAD_CAT_ID   = 67664
ELEMENT_SET_NO = 999
REV_AT_EPOCH   = 450
BSTAR          = .25534E-2
MEAN_MOTION_DOT = .400811E-2
MEAN_MOTION_DDOT = 0

CCSDS_OMM_VERS = 2.0
CREATION_DATE  = 
ORIGINATOR     = 

OBJECT_NAME    = STARLINK-36399
OBJECT_ID      = 2026-022T
CENTER_NAME    = EARTH
REF_FRAME      = TEME
TIME_SYSTEM    = UTC
MEAN_ELEMENT_THEORY = SGP/SGP4

EPOCH          = 2026-03-03T00:51:24.146496
MEAN_MOTION    = 15.75342132
ECCENTRICITY   = .0001347
INCLINATION    = 97.2832
RA_OF_ASC_NODE = 95.7162
ARG_OF_PERICENTER = 132.0460
MEAN_ANOMALY   = 228.0920

EPHEMERIS_TYPE = 0
CLASSIFICATION_TYPE = U
NORAD_CAT_ID   = 67665
ELEMENT_SET_NO = 999
REV_AT_EPOCH   = 450
BSTAR          = .25254E-2
MEAN_MOTION_DOT = .397221E-2
MEAN_MOTION_DDOT = 0

CCSDS_OMM_VERS = 2.0
CREATION_DATE  = 
ORIGINATOR     = 

OBJECT_NAME    = STARLINK-36365
OBJECT_ID      = 2026-022U
CENTER_NAME    = EARTH
REF_FRAME      = TEME
TIME_SYSTEM    = UTC
MEAN_ELEMENT_THEORY = SGP/SGP4

EPOCH          = 2026-03-03T00:49:22.236960
MEAN_MOTION    = 15.75345768
ECCENTRICITY   = .0001596
INCLINATION    = 97.2835
RA_OF_ASC_NODE = 95.7185
ARG_OF_PERICENTER = 126.6069
MEAN_ANOMALY   = 233.5343

EPHEMERIS_TYPE = 0
CLASSIFICATION_TYPE = U
NORAD_CAT_ID   = 67666
ELEMENT_SET_NO = 999
REV_AT_EPOCH   = 450
BSTAR          = .25609E-2
MEAN_MOTION_DOT = .403148E-2
MEAN_MOTION_DDOT = 0

CCSDS_OMM_VERS = 2.0
CREATION_DATE  = 
ORIGINATOR     = 

OBJECT_NAME    = STARLINK-36622
OBJECT_ID      = 2026-022V
CENTER_NAME    = EARTH
REF_FRAME      = TEME
TIME_SYSTEM    = UTC
MEAN_ELEMENT_THEORY = SGP/SGP4

EPOCH          = 2026-03-03T02:18:18.444384
MEAN_MOTION    = 15.75207219
ECCENTRICITY   = .0001089
INCLINATION    = 97.2822
RA_OF_ASC_NODE = 95.7874
ARG_OF_PERICENTER = 10.9453
MEAN_ANOMALY   = 349.1836

EPHEMERIS_TYPE = 0
CLASSIFICATION_TYPE = U
NORAD_CAT_ID   = 67667
ELEMENT_SET_NO = 999
REV_AT_EPOCH   = 451
BSTAR          = .96542E-3
MEAN_MOTION_DOT = .146472E-2
MEAN_MOTION_DDOT = 0

CCSDS_OMM_VERS = 2.0
CREATION_DATE  = 
ORIGINATOR     = 

OBJECT_NAME    = STARLINK-36625
OBJECT_ID      = 2026-022W
CENTER_NAME    = EARTH
REF_FRAME      = TEME
TIME_SYSTEM    = UTC
MEAN_ELEMENT_THEORY = SGP/SGP4

EPOCH          = 2026-03-03T00:44:47.908320
MEAN_MOTION    = 15.75281677
ECCENTRICITY   = .0001065
INCLINATION    = 97.2830
RA_OF_ASC_NODE = 95.7225
ARG_OF_PERICENTER = 125.3004
MEAN_ANOMALY   = 234.8361

EPHEMERIS_TYPE = 0
CLASSIFICATION_TYPE = U
NORAD_CAT_ID   = 67668
ELEMENT_SET_NO = 999
REV_AT_EPOCH   = 450
BSTAR          = .16323E-2
MEAN_MOTION_DOT = .251647E-2
MEAN_MOTION_DDOT = 0

CCSDS_OMM_VERS = 2.0
CREATION_DATE  = 
ORIGINATOR     = 

OBJECT_NAME    = STARLINK-36639
OBJECT_ID      = 2026-022X
CENTER_NAME    = EARTH
REF_FRAME      = TEME
TIME_SYSTEM    = UTC
MEAN_ELEMENT_THEORY = SGP/SGP4

EPOCH          = 2026-03-03T02:13:43.771008
MEAN_MOTION    = 15.75192121
ECCENTRICITY   = .0001073
INCLINATION    = 97.2830
RA_OF_ASC_NODE = 95.7909
ARG_OF_PERICENTER = 69.2069
MEAN_ANOMALY   = 290.9311

EPHEMERIS_TYPE = 0
CLASSIFICATION_TYPE = U
NORAD_CAT_ID   = 67669
ELEMENT_SET_NO = 999
REV_AT_EPOCH   = 451
BSTAR          = .64178E-3
MEAN_MOTION_DOT = .96693E-3
MEAN_MOTION_DDOT = 0

CCSDS_OMM_VERS = 2.0
CREATION_DATE  = 
ORIGINATOR     = 

OBJECT_NAME    = STARLINK-36596
OBJECT_ID      = 2026-022Y
CENTER_NAME    = EARTH
REF_FRAME      = TEME
TIME_SYSTEM    = UTC
MEAN_ELEMENT_THEORY = SGP/SGP4

EPOCH          = 2026-03-03T02:11:11.635296
MEAN_MOTION    = 15.75177264
ECCENTRICITY   = .0001627
INCLINATION    = 97.2833
RA_OF_ASC_NODE = 95.7935
ARG_OF_PERICENTER = 33.9152
MEAN_ANOMALY   = 326.2217

EPHEMERIS_TYPE = 0
CLASSIFICATION_TYPE = U
NORAD_CAT_ID   = 67670
ELEMENT_SET_NO = 999
REV_AT_EPOCH   = 451
BSTAR          = .11361E-2
MEAN_MOTION_DOT = .172706E-2
MEAN_MOTION_DDOT = 0

CCSDS_OMM_VERS = 2.0
CREATION_DATE  = 
ORIGINATOR     = 

OBJECT_NAME    = STARLINK-36297
OBJECT_ID      = 2026-022Z
CENTER_NAME    = EARTH
REF_FRAME      = TEME
TIME_SYSTEM    = UTC
MEAN_ELEMENT_THEORY = SGP/SGP4

EPOCH          = 2026-03-03T02:08:08.450016
MEAN_MOTION    = 15.75206441
ECCENTRICITY   = .0001314
INCLINATION    = 97.2832
RA_OF_ASC_NODE = 95.7965
ARG_OF_PERICENTER = 80.1852
MEAN_ANOMALY   = 279.9561

EPHEMERIS_TYPE = 0
CLASSIFICATION_TYPE = U
NORAD_CAT_ID   = 67671
ELEMENT_SET_NO = 999
REV_AT_EPOCH   = 451
BSTAR          = .79398E-3
MEAN_MOTION_DOT = .120062E-2
MEAN_MOTION_DDOT = 0

